$$SOE
2460147.500000000, A.D. 2023-Jul-22 00:00:00.0000, -6.838606573231962E+07, -3.159782261877438E+08, -1.899796932348052E+07,
2460154.500000000, A.D. 2023-Jul-29 00:00:00.0000, -5.593302826000191E+07, -3.166570951800265E+08, -1.933752888868220E+07,
2460161.500000000, A.D. 2023-Aug-05 00:00:00.0000, -4.339886709268007E+07, -3.168761744415965E+08, -1.964900694444738E+07,
2460168.500000000, A.D. 2023-Aug-12 00:00:00.0000, -3.080077550753707E+07, -3.166277774464784E+08, -1.993149410549743E+07,
2460175.500000000, A.D. 2023-Aug-19 00:00:00.0000, -1.815661494528019E+07, -3.159048019152557E+08, -2.018410326178178E+07,
2460182.500000000, A.D. 2023-Aug-26 00:00:00.0000, -5.484905692089376E+06, -3.147007852959735E+08, -2.040597341953991E+07,
2460189.500000000, A.D. 2023-Sep-02 00:00:00.0000, 7.195186843143090E+06, -3.130099621326734E+08, -2.059627377104525E+07,
2460196.500000000, A.D. 2023-Sep-09 00:00:00.0000, 1.986387069138242E+07, -3.108273230586056E+08, -2.075420798927848E+07,
2460203.500000000, A.D. 2023-Sep-16 00:00:00.0000, 3.250075128213785E+07, -3.081486751109817E+08, -2.087901875313146E+07,
2460210.500000000, A.D. 2023-Sep-23 00:00:00.0000, 4.508486158348565E+07, -3.049707026556602E+08, -2.096999249857253E+07,
2460217.500000000, A.D. 2023-Sep-30 00:00:00.0000, 5.759469842566796E+07, -3.012910272389743E+08, -2.102646424297141E+07,
2460224.500000000, A.D. 2023-Oct-07 00:00:00.0000, 7.000826295944647E+07, -2.971082663480231E+08, -2.104782228140970E+07,
2460231.500000000, A.D. 2023-Oct-14 00:00:00.0000, 8.230310654767075E+07, -2.924220937629780E+08, -2.103351308616336E+07,
2460238.500000000, A.D. 2023-Oct-21 00:00:00.0000, 9.445638551920745E+07, -2.872332992095920E+08, -2.098304653434588E+07,
2460245.500000000, A.D. 2023-Oct-28 00:00:00.0000, 1.064449234880297E+08, -2.815438443071017E+08, -2.089600110256283E+07,
2460252.500000000, A.D. 2023-Nov-04 00:00:00.0000, 1.182452800287017E+08, -2.753569147833478E+08, -2.077202892540529E+07,
2460259.500000000, A.D. 2023-Nov-11 00:00:00.0000, 1.298338258305176E+08, -2.686769687138292E+08, -2.061086072642772E+07,
2460266.500000000, A.D. 2023-Nov-18 00:00:00.0000, 1.411868243863954E+08, -2.615097799743101E+08, -2.041231058568881E+07,
2460273.500000000, A.D. 2023-Nov-25 00:00:00.0000, 1.522805200063981E+08, -2.538624759919991E+08, -2.017628048337623E+07,
2460280.500000000, A.D. 2023-Dec-02 00:00:00.0000, 1.630912317726181E+08, -2.457435689103221E+08, -1.990276455463085E+07,
2460287.500000000, A.D. 2023-Dec-09 00:00:00.0000, 1.735954529708707E+08, -2.371629793441110E+08, -1.959185299739613E+07,
2460294.500000000, A.D. 2023-Dec-16 00:00:00.0000, 1.837699556143314E+08, -2.281320518716240E+08, -1.924373558811194E+07,
2460301.500000000, A.D. 2023-Dec-23 00:00:00.0000, 1.935918996013159E+08, -2.186635608032256E+08, -1.885870471124381E+07,
2460308.500000000, A.D. 2023-Dec-30 00:00:00.0000, 2.030389442250898E+08, -2.087717044899012E+08, -1.843715762636726E+07,
2460315.500000000, A.D. 2024-Jan-06 00:00:00.0000, 2.120893591944453E+08, -1.984720899445685E+08, -1.797959793957284E+07,
2460322.500000000, A.D. 2024-Jan-13 00:00:00.0000, 2.207221371609946E+08, -1.877817091183062E+08, -1.748663666026063E+07,
2460329.500000000, A.D. 2024-Jan-20 00:00:00.0000, 2.289171077138530E+08, -1.767189034353838E+08, -1.695899265370090E+07,
2460336.500000000, A.D. 2024-Jan-27 00:00:00.0000, 2.366550494815909E+08, -1.653033157959851E+08, -1.639749220954943E+07,
2460343.500000000, A.D. 2024-Feb-03 00:00:00.0000, 2.439177985359539E+08, -1.535558310387815E+08, -1.580306773490579E+07,
2460350.500000000, A.D. 2024-Feb-10 00:00:00.0000, 2.506883519818388E+08, -1.414985053898022E+08, -1.517675560368495E+07,
2460357.500000000, A.D. 2024-Feb-17 00:00:00.0000, 2.569509654959106E+08, -1.291544853227670E+08, -1.451969317018422E+07,
2460364.500000000, A.D. 2024-Feb-24 00:00:00.0000, 2.626912435230508E+08, -1.165479164472819E+08, -1.383311495875515E+07,
2460371.500000000, A.D. 2024-Mar-02 00:00:00.0000, 2.678962209144446E+08, -1.037038432812545E+08, -1.311834805918431E+07,
2460378.500000000, A.D. 2024-Mar-09 00:00:00.0000, 2.725544350091145E+08, -9.064810097283857E+07, -1.237680678443930E+07,
2460385.500000000, A.D. 2024-Mar-16 00:00:00.0000, 2.766559875559523E+08, -7.740719993036839E+07, -1.160998666347479E+07,
2460392.500000000, A.D. 2024-Mar-23 00:00:00.0000, 2.801925955556852E+08, -6.400820353982174E+07, -1.081945773369619E+07,
2460399.500000000, A.D. 2024-Mar-30 00:00:00.0000, 2.831576281669751E+08, -5.047860040755248E+07, -1.000685700588671E+07,
2460406.500000000, A.D. 2024-Apr-06 00:00:00.0000, 2.855461295091645E+08, -3.684617599112542E+07, -9.173880486918269E+06,
2460413.500000000, A.D. 2024-Apr-13 00:00:00.0000, 2.873548306890311E+08, -2.313888431289135E+07, -8.322275111785885E+06,
2460420.500000000, A.D. 2024-Apr-20 00:00:00.0000, 2.885821500900072E+08, -9.384718616901118E+06, -7.453830378454208E+06,
2460427.500000000, A.D. 2024-Apr-27 00:00:00.0000, 2.892281806049079E+08, 4.388416963504321E+06, -6.570369695810412E+06,
2460434.500000000, A.D. 2024-May-04 00:00:00.0000, 2.892946643032507E+08, 1.815283259296440E+07, -5.673741615467443E+06,
2460441.500000000, A.D. 2024-May-11 00:00:00.0000, 2.887849553824626E+08, 3.188117334423063E+07, -4.765811081079516E+06,
2460448.500000000, A.D. 2024-May-18 00:00:00.0000, 2.877039722851840E+08, 4.554653403409211E+07, -3.848450799563026E+06,
2460455.500000000, A.D. 2024-May-25 00:00:00.0000, 2.860581399553696E+08, 5.912256718603880E+07, -2.923532829019599E+06,
2460462.500000000, A.D. 2024-Jun-01 00:00:00.0000, 2.838553233479613E+08, 7.258358312161045E+07, -1.992920477829430E+06,
2460469.500000000, A.D. 2024-Jun-08 00:00:00.0000, 2.811047535716520E+08, 8.590464138697104E+07, -1.058460615298066E+06,
2460476.500000000, A.D. 2024-Jun-15 00:00:00.0000, 2.778169482447916E+08, 9.906163346527943E+07, -1.219764528888538E+05,
2460483.500000000, A.D. 2024-Jun-22 00:00:00.0000, 2.740036262588598E+08, 1.120313575428046E+08, 8.147393366781548E+05,
2460490.500000000, A.D. 2024-Jun-29 00:00:00.0000, 2.696776160510510E+08, 1.247915832871094E+08, 1.749931165886223E+06,
2460497.500000000, A.D. 2024-Jul-06 00:00:00.0000, 2.648527612430562E+08, 1.373211040945659E+08, 2.681886266959578E+06,
2460504.500000000, A.D. 2024-Jul-13 00:00:00.0000, 2.595438267407565E+08, 1.495997797056457E+08, 3.608939643513620E+06,
2460511.500000000, A.D. 2024-Jul-20 00:00:00.0000, 2.537664043886710E+08, 1.616085705566791E+08, 4.529478504013628E+06,
2460518.500000000, A.D. 2024-Jul-27 00:00:00.0000, 2.475368185292943E+08, 1.733295632500965E+08, 5.441946157440715E+06,
2460525.500000000, A.D. 2024-Aug-03 00:00:00.0000, 2.408720326550566E+08, 1.847459872102785E+08, 6.344845322725967E+06,
2460532.500000000, A.D. 2024-Aug-10 00:00:00.0000, 2.337895581320809E+08, 1.958422230453703E+08, 7.236740851274893E+06,
2460539.500000000, A.D. 2024-Aug-17 00:00:00.0000, 2.263073657504127E+08, 2.066038032261993E+08, 8.116261881537661E+06,
2460546.500000000, A.D. 2024-Aug-24 00:00:00.0000, 2.184438007283280E+08, 2.170174056964056E+08, 8.982103448300645E+06,
2460553.500000000, A.D. 2024-Aug-31 00:00:00.0000, 2.102175017799957E+08, 2.270708410195186E+08, 9.833027562618524E+06,
2460560.500000000, A.D. 2024-Sep-07 00:00:00.0000, 2.016473250048568E+08, 2.367530338728420E+08, 1.066786377415711E+07,
2460567.500000000, A.D. 2024-Sep-14 00:00:00.0000, 1.927522729823377E+08, 2.460540005649527E+08, 1.148550932615325E+07,
2460574.500000000, A.D. 2024-Sep-21 00:00:00.0000, 1.835514272411410E+08, 2.549648236499355E+08, 1.228492916021711E+07,
2460581.500000000, A.D. 2024-Sep-28 00:00:00.0000, 1.740638837256303E+08, 2.634776210653026E+08, 1.306515559242181E+07,
2460588.500000000, A.D. 2024-Oct-05 00:00:00.0000, 1.643086949862102E+08, 2.715855104300895E+08, 1.382528736453448E+07,
2460595.500000000, A.D. 2024-Oct-12 00:00:00.0000, 1.543048187210586E+08, 2.792825720649203E+08, 1.456448838447483E+07,
2460602.500000000, A.D. 2024-Oct-19 00:00:00.0000, 1.440710708403142E+08, 2.865638110054145E+08, 1.528198633149321E+07,
2460609.500000000, A.D. 2024-Oct-26 00:00:00.0000, 1.336260828976581E+08, 2.934251177119291E+08, 1.597707109948686E+07,
2460616.500000000, A.D. 2024-Nov-02 00:00:00.0000, 1.229882639870294E+08, 2.998632277872845E+08, 1.664909307662761E+07,
2460623.500000000, A.D. 2024-Nov-09 00:00:00.0000, 1.121757670107399E+08, 3.058756811372067E+08, 1.729746128576560E+07,
2460630.500000000, A.D. 2024-Nov-16 00:00:00.0000, 1.012064591308399E+08, 3.114607809419717E+08, 1.792164141249469E+07,
2460637.500000000, A.D. 2024-Nov-23 00:00:00.0000, 9.009789621937746E+07, 3.166175527124068E+08, 1.852115373919562E+07,
2460644.500000000, A.D. 2024-Nov-30 00:00:00.0000, 7.886730127252680E+07, 3.213457036669201E+08, 1.909557098650467E+07,
2460651.500000000, A.D. 2024-Dec-07 00:00:00.0000, 6.753154695717886E+07, 3.256455830892837E+08, 1.964451607946518E+07,
2460658.500000000, A.D. 2024-Dec-14 00:00:00.0000, 5.610714134937450E+07, 3.295181450927571E+08, 2.016766001989736E+07,
2460665.500000000, A.D. 2024-Dec-21 00:00:00.0000, 4.461021429322194E+07, 3.329649127068990E+08, 2.066471999135292E+07,
2460672.500000000, A.D. 2024-Dec-28 00:00:00.0000, 3.305650609060967E+07, 3.359879404480422E+08, 2.113545728792211E+07,
2460679.500000000, A.D. 2025-Jan-04 00:00:00.0000, 2.146136086967465E+07, 3.385897778726638E+08, 2.157967503736484E+07,
2460686.500000000, A.D. 2025-Jan-11 00:00:00.0000, 9.839722582408493E+06, 3.407734358657347E+08, 2.199721603304708E+07,
2460693.500000000, A.D. 2025-Jan-18 00:00:00.0000, -1.793867504523561E+06, 3.425423548061715E+08, 2.238796069380486E+07,
2460700.500000000, A.D. 2025-Jan-25 00:00:00.0000, -1.342527178841173E+07, 3.439003741732553E+08, 2.275182509881093E+07,
2460707.500000000, A.D. 2025-Feb-01 00:00:00.0000, -2.504075578313732E+07, 3.448517035785843E+08, 2.308875908330898E+07,
2460714.500000000, A.D. 2025-Feb-08 00:00:00.0000, -3.662698617420901E+07, 3.454008952382851E+08, 2.339874439543651E+07,
$$EOE